NORAD_CAT_ID,OBJECT_NAME,OBJECT_TYPE,EPOCH,MEAN_MOTION,ECCENTRICITY,INCLINATION,RA_OF_ASC_NODE,ARG_OF_PERICENTER,MEAN_ANOMALY,BSTAR,MEAN_MOTION_DOT,MEAN_MOTION_DDOT,TLE_LINE0,TLE_LINE1,TLE_LINE2,SEMIMAJOR_AXIS,PERIOD,APOGEE,PERIGEE,DECAYED
49420.0,STARLINK-3110,PAYLOAD,2022-01-01 14:00:01,15.44735993,0.0001094,53.2173,252.3487,78.3253,284.8579,-0.01491,-0.00651384,0.0,0 STARLINK-3110,1 49420U 21104N   22001.58335648 -.00651384  00000-0 -14910-1 0  9999,2 49420  53.2173 252.3487 0001094  78.3253 284.8579 15.44735993  3674,6810.291,93.22,432.901,431.411,0.0
49420.0,STARLINK-3110,PAYLOAD,2022-01-01 22:00:00,15.44272384,0.0001458,53.2174,250.7694,45.4461,12.1156,-0.01526,-0.00655847,0.0,0 STARLINK-3110,1 49420U 21104N   22001.91667824 -.00655847  00000-0 -15260-1 0  9997,2 49420  53.2174 250.7694 0001458  45.4461  12.1156 15.44272384  3670,6811.654,93.248,434.512,432.526,0.0
49420.0,STARLINK-3110,PAYLOAD,2022-01-02 14:00:01,15.43218097,0.0001508,53.2169,247.6101,43.6254,121.2079,-0.011632,-0.00492664,0.0,0 STARLINK-3110,1 49420U 21104N   22002.58334491 -.00492664  00000-0 -11632-1 0  9997,2 49420  53.2169 247.6101 0001508  43.6254 121.2079 15.43218097  9142,6814.755999999999,93.312,437.649,435.593,0.0
49420.0,STARLINK-3110,PAYLOAD,2022-01-02 22:00:00,15.42870015,0.0001616,53.2173,246.0325,50.9267,166.6081,-0.015894,-0.00659454,0.0,0 STARLINK-3110,1 49420U 21104N   22002.91667824 -.00659454  00000-0 -15894-1 0  9999,2 49420  53.2173 246.0325 0001616  50.9267 166.6081 15.42870015  3685,6815.781,93.333,438.747,436.544,0.0
49420.0,STARLINK-3110,PAYLOAD,2022-01-03 14:00:01,15.41936776,0.0001312,53.2173,242.8785,57.7733,263.607,-0.016394,-0.00659114,0.0,0 STARLINK-3110,1 49420U 21104N   22003.58334491 -.00659114  00000-0 -16394-1 0  9993,2 49420  53.2173 242.8785 0001312  57.7733 263.6070 15.41936776  3676,6818.531,93.389,441.29,439.501,0.0
49420.0,STARLINK-3110,PAYLOAD,2022-01-03 21:57:23,15.42554879,0.0001317,53.2169,241.3323,87.7254,272.3903,-0.0044133,-0.00190273,0.0,0 STARLINK-3110,1 49420U 21104N   22003.91486020 -.00190273  00000-0 -44133-2 0  9995,2 49420  53.2169 241.3323 0001317  87.7254 272.3903 15.42554879  8240,6816.709,93.352,439.472,437.676,0.0
49420.0,STARLINK-3110,PAYLOAD,2022-01-04 14:00:01,15.40400407,0.0001605,53.217,238.1598,37.5531,75.4605,-0.012096,-0.00467635,0.0,0 STARLINK-3110,1 49420U 21104N   22004.58334491 -.00467635  00000-0 -12096-1 0  9994,2 49420  53.2170 238.1598 0001605  37.5531  75.4605 15.40400407  3657,6823.064,93.482,446.024,443.834,0.0
49420.0,STARLINK-3110,PAYLOAD,2022-01-04 21:18:32,15.41146678,0.0001815,53.2169,236.742,99.299,260.8222,-0.0044488,-0.00183163,0.0,0 STARLINK-3110,1 49420U 21104N   22004.88788168 -.00183163  00000-0 -44488-2 0  9993,2 49420  53.2169 236.7420 0001815  99.2990 260.8222 15.41146678  8399,6820.861,93.437,443.964,441.48800000000006,0.0
49420.0,STARLINK-3110,PAYLOAD,2022-01-05 14:00:01,15.39138613,0.0001468,53.2175,233.4482,57.2397,202.219,-0.018035,-0.00660516,0.0,0 STARLINK-3110,1 49420U 21104N   22005.58334491 -.00660516  00000-0 -18035-1 0  9997,2 49420  53.2175 233.4482 0001468  57.2397 202.2190 15.39138613  9603,6826.792,93.559,449.659,447.655,0.0
49420.0,STARLINK-3110,PAYLOAD,2022-01-05 22:00:00,15.38672621,0.0001524,53.2175,231.8825,49.1403,258.0347,-0.018353,-0.00661838,0.0,0 STARLINK-3110,1 49420U 21104N   22005.91667824 -.00661838  00000-0 -18353-1 0  9994,2 49420  53.2175 231.8825 0001524  49.1403 258.0347 15.38672621  3672,6828.170999999999,93.587,451.076,448.995,0.0
49420.0,STARLINK-3110,PAYLOAD,2022-01-06 14:00:01,15.37738027,0.000137,53.2174,228.7483,51.7047,349.2251,-0.018834,-0.00658894,0.0,0 STARLINK-3110,1 49420U 21104N   22006.58334491 -.00658894  00000-0 -18834-1 0  9991,2 49420  53.2174 228.7483 0001370  51.7047 349.2251 15.37738027  3666,6830.937,93.644,453.73800000000006,451.866,0.0
49420.0,STARLINK-3110,PAYLOAD,2022-01-06 22:00:00,15.37274456,0.0001599,53.2174,227.1859,43.8787,43.0845,-0.019288,-0.00664278,0.0,0 STARLINK-3110,1 49420U 21104N   22006.91667824 -.00664278  00000-0 -19288-1 0  9994,2 49420  53.2174 227.1859 0001599  43.8787  43.0845 15.37274456  9814,6832.31,93.672,455.268,453.083,0.0
49420.0,STARLINK-3110,PAYLOAD,2022-01-07 14:00:01,15.36215531,0.0001744,53.2165,224.0592,52.0795,125.3398,-0.0144889999999999,-0.00487126,0.0,0 STARLINK-3110,1 49420U 21104N   22007.58334491 -.00487126  00000-0 -14489-1 0  9992,2 49420  53.2165 224.0592 0001744  52.0795 125.3398 15.36215531  3647,6835.449000000001,93.737,458.507,456.122,0.0
49420.0,STARLINK-3110,PAYLOAD,2022-01-07 22:00:00,15.35763163,0.0001564999999999,53.2169,222.5001,68.9366,152.8285,-0.015375,-0.00507998,0.0,0 STARLINK-3110,1 49420U 21104N   22007.91667824 -.00507998  00000-0 -15375-1 0  9993,2 49420  53.2169 222.5001 0001565  68.9366 152.8285 15.35763163  3648,6836.792,93.764,459.727,457.587,0.0
49420.0,STARLINK-3110,PAYLOAD,2022-01-08 00:00:00,15.35725012,0.0001291999999999,53.2171,222.1101,63.5946,259.1269,-0.018686,-0.00615376,0.0,0 STARLINK-3110,1 49420U 21104N   22008.00001157 -.00615376  00000-0 -18686-1 0  9993,2 49420  53.2171 222.1101 0001292  63.5946 259.1269 15.35725012  9976,6836.905,93.767,459.653,457.887,0.0
49420.0,STARLINK-3110,PAYLOAD,2022-01-08 14:00:01,15.34938725,0.0001315999999999,53.2175,219.3779,66.3019,242.4322,-0.020592,-0.00658043,0.0,0 STARLINK-3110,1 49420U 21104N   22008.58334491 -.00658043  00000-0 -20592-1 0  9993,2 49420  53.2175 219.3779 0001316  66.3019 242.4322 15.34938725 10061,6839.24,93.815,462.005,460.204,0.0
49420.0,STARLINK-3110,PAYLOAD,2022-01-08 22:00:00,15.34370169,0.0001378,53.2171,217.8233,68.2647,283.1922,-0.016288,-0.00514197,0.0,0 STARLINK-3110,1 49420U 21104N   22008.91667824 -.00514197  00000-0 -16288-1 0  9997,2 49420  53.2171 217.8233 0001378  68.2647 283.1922 15.34370169  3636,6840.929,93.85,463.737,461.851,0.0
49420.0,STARLINK-3110,PAYLOAD,2022-01-09 14:00:01,15.33539103,0.0001401,53.2174,214.7077,53.1914,21.8764,-0.02155,-0.0065853,0.0,0 STARLINK-3110,1 49420U 21104N   22009.58334491 -.00658530  00000-0 -21550-1 0  9990,2 49420  53.2174 214.7077 0001401  53.1914  21.8764 15.33539103 10226,6843.4,93.9,466.224,464.306,0.0
49420.0,STARLINK-3110,PAYLOAD,2022-01-09 22:00:00,15.33074016,0.0001641,53.2174,213.1553,45.4905,70.5656,-0.021983,-0.00661709,0.0,0 STARLINK-3110,1 49420U 21104N   22009.91667824 -.00661709  00000-0 -21983-1 0  9998,2 49420  53.2174 213.1553 0001641  45.4905  70.5656 15.33074016  3666,6844.784000000002,93.929,467.772,465.526,0.0
49420.0,STARLINK-3110,PAYLOAD,2022-01-10 14:00:01,15.32140086,0.0001574,53.2175,210.0476,56.2242,140.1311,-0.022555,-0.00659349,0.0,0 STARLINK-3110,1 49420U 21104N   22010.58334491 -.00659349  00000-0 -22555-1 0  9997,2 49420  53.2175 210.0476 0001574  56.2242 140.1311 15.32140086 10374,6847.565,93.986,470.508,468.353,0.0
49420.0,STARLINK-3110,PAYLOAD,2022-01-10 22:00:00,15.31672509,0.0001575999999999,53.2175,208.4981,56.2037,179.459,-0.022841,-0.00658055,0.0,0 STARLINK-3110,1 49420U 21104N   22010.91667824 -.00658055  00000-0 -22841-1 0  9994,2 49420  53.2175 208.4981 0001576  56.2037 179.4590 15.31672509  3667,6848.959,94.015,471.903,469.745,0.0
49420.0,STARLINK-3110,PAYLOAD,2022-01-11 14:00:01,15.30740721,0.0001516,53.2177,205.3971,50.8956,261.7018,-0.023582,-0.00659727,0.0,0 STARLINK-3110,1 49420U 21104N   22011.58334491 -.00659727  00000-0 -23582-1 0  9999,2 49420  53.2177 205.3971 0001516  50.8956 261.7018 15.30740721  3658,6851.738,94.072,474.642,472.564,0.0
49420.0,STARLINK-3110,PAYLOAD,2022-01-11 22:00:00,15.30273865,0.0001450999999999,53.2176,203.8511,50.254,299.9687,-0.023947,-0.00660209,0.0,0 STARLINK-3110,1 49420U 21104N   22011.91667824 -.00660209  00000-0 -23947-1 0  9997,2 49420  53.2176 203.8511 0001451  50.2540 299.9687 15.30273865 10575,6853.132,94.101,475.991,474.002,0.0
49420.0,STARLINK-3110,PAYLOAD,2022-01-12 14:00:01,15.29340828,0.0001579,53.2176,200.7569,43.4636,20.3304,-0.024644,-0.0066005,0.0,0 STARLINK-3110,1 49420U 21104N   22012.58334491 -.00660050  00000-0 -24644-1 0  9991,2 49420  53.2176 200.7569 0001579  43.4636  20.3304 15.29340828  3661,6855.919,94.158,478.866,476.701,0.0
49420.0,STARLINK-3110,PAYLOAD,2022-01-12 22:00:00,15.28872409,0.0001663,53.2176,199.2139,42.2963,57.4418,-0.024906,-0.00657666,0.0,0 STARLINK-3110,1 49420U 21104N   22012.91667824 -.00657666  00000-0 -24906-1 0  9997,2 49420  53.2176 199.2139 0001663  42.2963  57.4418 15.28872409 10737,6857.319,94.187,480.324,478.044,0.0
49420.0,STARLINK-3110,PAYLOAD,2022-01-13 14:00:01,15.27940084,0.0001713,53.2177,196.1263,45.6827,124.2624,-0.025659,-0.00658335,0.0,0 STARLINK-3110,1 49420U 21104N   22013.58334491 -.00658335  00000-0 -25659-1 0  9992,2 49420  53.2177 196.1263 0001713  45.6827 124.2624 15.27940084  3675,6860.108,94.245,483.148,480.798,0.0
49420.0,STARLINK-3110,PAYLOAD,2022-01-13 22:00:00,15.27470823,0.0001614,53.2176,194.5865,52.948,151.2595,-0.025841,-0.0065386,0.0,0 STARLINK-3110,1 49420U 21104N   22013.91667824 -.00653860  00000-0 -25841-1 0  9999,2 49420  53.2176 194.5865 0001614  52.9480 151.2595 15.27470823  3632,6861.513000000001,94.273,484.485,482.271,0.0
49420.0,STARLINK-3110,PAYLOAD,2022-01-14 06:00:00,15.27007513,0.0001583,53.2176,193.0445,52.2361,185.6728,-0.026429,-0.00658945,0.0,0 STARLINK-3110,1 49420U 21104N   22014.25001157 -.00658945  00000-0 -26429-1 0  9990,2 49420  53.2176 193.0445 0001583  52.2361 185.6728 15.27007513 10938,6862.901,94.302,485.852,483.679,0.0
49420.0,STARLINK-3110,PAYLOAD,2022-01-14 14:00:01,15.26540701,0.0001628,53.2176,191.5056,48.7259,222.324,-0.026788,-0.00658499,0.0,0 STARLINK-3110,1 49420U 21104N   22014.58334491 -.00658499  00000-0 -26788-1 0  9998,2 49420  53.2176 191.5056 0001628  48.7259 222.3240 15.26540701  3654,6864.3,94.331,487.282,485.047,0.0
